{
    "CCSDS_OMM_VERS": "3.0",
    "COMMENT": "GENERATED VIA SPACE-TRACK.ORG API",
    "CREATION_DATE": "2025-11-22T18:56:57",
    "ORIGINATOR": "18 SPCS",
    "OBJECT_NAME": "NAVSTAR 77 (USA 289)",
    "OBJECT_ID": "2018-109A",
    "CENTER_NAME": "EARTH",
    "REF_FRAME": "TEME",
    "TIME_SYSTEM": "UTC",
    "MEAN_ELEMENT_THEORY": "SGP4",
    "EPOCH": "2025-11-22T02:16:38.868384",
    "MEAN_MOTION": "2.00553215",
    "ECCENTRICITY": "0.00370881",
    "INCLINATION": "55.5555",
    "RA_OF_ASC_NODE": "100.3624",
    "ARG_OF_PERICENTER": "194.2522",
    "MEAN_ANOMALY": "163.3091",
    "EPHEMERIS_TYPE": "0",
    "CLASSIFICATION_TYPE": "U",
    "NORAD_CAT_ID": "43873",
    "ELEMENT_SET_NO": "999",
    "REV_AT_EPOCH": "5091",
    "BSTAR": "0.00000000000000",
    "MEAN_MOTION_DOT": "0.00000013",
    "MEAN_MOTION_DDOT": "0.0000000000000",
    "SEMIMAJOR_AXIS": "26561.265",
    "PERIOD": "718.014",
    "APOAPSIS": "20281.641",
    "PERIAPSIS": "20084.619",
    "OBJECT_TYPE": "PAYLOAD",
    "RCS_SIZE": "LARGE",
    "COUNTRY_CODE": "US",
    "LAUNCH_DATE": "2018-12-23",
    "SITE": "AFETR",
    "DECAY_DATE": null,
    "FILE": "4894246",
    "GP_ID": "303253672",
    "TLE_LINE0": "0 NAVSTAR 77 (USA 289)",
    "TLE_LINE1": "1 43873U 18109A   25326.09489431  .00000013  00000-0  00000-0 0  9994",
    "TLE_LINE2": "2 43873  55.5555 100.3624 0037088 194.2522 163.3091  2.00553215 50915"
}